ES'HAIL 2               
1 43700U 18090A   23359.56715865  .00000154  00000+0  00000+0 0  9995
2 43700   0.0179 304.7807 0002188   6.2171  12.7860  1.00270275 18601
FOX-1CLIFF (AO-95)      
1 43770U 18099N   23359.13841561  .00008418  00000+0  63549-3 0  9999
2 43770  97.5742  55.9253 0013264 234.8119 125.1865 15.02585053276254
ITASAT                  
1 43786U 18099AE  23359.15029712  .00007410  00000+0  57297-3 0  9998
2 43786  97.5423  56.4738 0017640 212.9129 147.0999 15.01659969276282
JY1SAT (JO-97)          
1 43803U 18099AX  23359.15788293  .00009920  00000+0  72511-3 0  9998
2 43803  97.5495  56.9795 0011180 169.8280 190.3174 15.03776229276366
UWE-4                   
1 43880U 18111E   23358.94618775  .00011829  00000+0  82463-3 0  9999
2 43880  97.6245 261.3935 0016052 244.6447 115.3117 15.05457874273032
JAISAT-1                
1 44419U 19038F   23359.50389318  .00058155  00000+0  12214-2 0  9997
2 44419  97.6830 349.5766 0010487 355.6232   4.4922 15.45100630247912
DUCHIFAT-3              
1 44854U 19089C   23359.47110013  .00014260  00000+0  84934-3 0  9994
2 44854  36.9612  24.6374 0006837 108.9755 251.1731 15.10577202221790
TIANYAN 01              
1 44881U 19093C   23359.53875035  .00001794  00000+0  22630-3 0  9991
2 44881  97.8471  74.6399 0014792 168.5735 191.5818 14.83108107217151
RS-44 & BREEZE-KM R/B   
1 44909U 19096E   23359.61170854  .00000048  00000+0  13989-3 0  9999
2 44909  82.5207 220.7443 0218416  99.3865 263.2000 12.79724847186645
BY70-2                  
1 45857U 20042B   23359.58303490  .00049613  00000+0  37367-2 0  9991
2 45857  97.9248  81.4749 0006360  83.0137 277.1810 15.02287007188140
SALSAT                  
1 46495U 20068K   23359.44737988  .00006698  00000+0  41325-3 0  9992
2 46495  97.7946 310.0302 0014327 182.3539 177.7625 15.10183539177915
RADFXSAT-2 (AO-109)     
1 47311U 21002C   23359.46795924  .00074368  00000+0  10034-2 0  9996
2 47311  60.6753  35.1299 0027833  47.6940 312.6515 15.56845147163860
UVSQ-SAT                
1 47438U 21006AB  23359.11102346  .00033564  00000+0  10535-2 0  9991
2 47438  97.3587  54.2046 0009164 120.2024 240.0127 15.32913595161804
LEDSAT                  
1 49069U 21073D   23359.18142526  .00015287  00000+0  73465-3 0  9992
2 49069  97.4628  67.1495 0021705 173.8065 186.3442 15.18705172129842
XW-3 (CAS-9)            
1 50466U 21131B   23359.58322217  .00001039  00000+0  34909-3 0  9991
2 50466  98.5412  80.4601 0003155 292.2218  67.8635 14.39262201104887
TEVEL-3                 
1 50988U 22002E   23359.46463227  .00046566  00000+0  12831-2 0  9995
2 50988  97.4100  66.2757 0004838 278.2931  81.7765 15.36978130108018
TEVEL-8                 
1 50989U 22002F   23359.55794718  .00049590  00000+0  13692-2 0  9994
2 50989  97.4117  66.4490 0004785 276.0812  83.9887 15.36899253108026
TEVEL-5                 
1 50998U 22002Q   23359.47025342  .00050757  00000+0  13311-2 0  9990
2 50998  97.4094  66.9659 0005623 268.7405  91.3196 15.38484121108066
TEVEL-6                 
1 50999U 22002R   23359.46965927  .00051580  00000+0  13534-2 0  9994
2 50999  97.4094  66.9538 0005628 268.7959  91.2642 15.38463985108062
TEVEL-1                 
1 51013U 22002AF  23359.61201085  .00048349  00000+0  13344-2 0  9995
2 51013  97.4092  66.3295 0004696 276.9930  83.0780 15.36918330108032
TEVEL-7                 
1 51062U 22002CG  23359.55508460  .00050067  00000+0  13800-2 0  9996
2 51062  97.4111  66.4162 0004817 276.0951  83.9744 15.36950176108023
TEVEL-4                 
1 51063U 22002CH  23359.57122260  .00048797  00000+0  13507-2 0  9990
2 51063  97.4109  66.3873 0004721 276.4220  83.6487 15.36825455108028
TEVEL-2                 
1 51069U 22002CP  23359.46524259  .00046834  00000+0  12897-2 0  9999
2 51069  97.4098  66.2436 0004806 277.8865  82.1833 15.36995482108015
GREENCUBE               
1 53106U 22080B   23353.26709400 -.00000003  00000+0  00000+0 0  9993
2 53106  70.1425 255.3862 0008213 145.5074 214.6119  6.42557317 33647
CYCLOPS (RS29S)         
1 53373U 22096D   23359.61165889  .00146131  00000+0  15072-2 0  9998
2 53373  97.3988 270.6488 0004111  87.1491 273.0239 15.64324026 77316
MONITOR-1 (RS32S)       
1 53374U 22096E   23359.60331488  .00124645  00000+0  14753-2 0  9999
2 53374  97.3929 269.9061 0004030  98.2547 261.9167 15.60839957 77276
KUZBASS-300 (RS34S)     
1 53375U 22096F   23359.56386733  .00070526  00000+0  11794-2 0  9998
2 53375  97.4007 268.4386 0003446  99.0204 261.1439 15.51657701 77165
UTMN (RS23S)            
1 53376U 22096G   23359.59040528  .00079026  00000+0  12276-2 0  9991
2 53376  97.3986 268.8341 0003133  93.7077 266.4535 15.53682633 77190
MIET-AIS (RS28S)        
1 53377U 22096H   23359.57179103  .00060194  00000+0  10792-2 0  9999
2 53377  97.4025 268.1583 0003056  95.8805 264.2794 15.49730825 77143
KAI-1 (RS26S)           
1 53378U 22096J   23359.57429571  .00046462  00000+0  95382-3 0  9998
2 53378  97.4054 267.3018 0002661  93.5697 266.5856 15.45879474 77082
ISOI (RS19S)            
1 53381U 22096M   23359.58885034  .00066192  00000+0  11338-2 0  9993
2 53381  97.4031 268.7089 0004766  84.1314 276.0481 15.50993678 77184
CUBESX-HSE-2 (RS21S)    
1 53383U 22096P   23359.55065806  .00076904  00000+0  12047-2 0  9999
2 53383  97.3998 269.0592 0005794  82.4925 277.6986 15.53445805 77208
SIREN (RS30S)           
1 53384U 22096Q   23359.59010605  .00052820  00000+0  99242-3 0  9995
2 53384  97.4035 268.1501 0004862  83.1069 277.0734 15.48414130 77143
GEOSCAN-EDELVEIS (RS20S)
1 53385U 22096R   23359.55146948  .00198418  00000+0  16797-2 0  9999
2 53385  97.3963 271.7448 0006650  77.2847 282.9158 15.69076772 77412
CAS-5A (FO-118)         
1 54684U 22167C   23359.58101716  .00021553  00000+0  98597-3 0  9992
2 54684  97.5832 136.9668 0012461  37.2133 322.9963 15.20479824 57698
STRATOSAT-TK 1 (RS52S)  
1 57167U 23091B   23359.60737091  .00013799  00000+0  92256-3 0  9991
2 57167  97.6409  48.6766 0016935   1.7387 358.3896 15.06966251 27226
UMKA 1 (RS40S)          
1 57172U 23091G   23359.55548543  .00006962  00000+0  49065-3 0  9997
2 57172  97.6406  48.4369 0017583   0.5643 359.5600 15.05194916 27202
CUBESX-HSE 3 (RS42S)    
1 57178U 23091N   23359.61134557  .00008837  00000+0  61374-3 0  9996
2 57178  97.6446  48.6049 0018230 355.8835   4.2239 15.05650513 27211
MONITOR-4 (RS57S)       
1 57182U 23091S   23359.55966276  .00008790  00000+0  61424-3 0  9999
2 57182  97.6427  48.4928 0018567 355.7178   4.3887 15.05418776 27203
MONITOR-2 (RS39S)       
1 57184U 23091U   23359.55276878  .00006101  00000+0  42593-3 0  9993
2 57184  97.6438  48.6651 0014525 351.1783   8.9186 15.05640361 27214
SVYATOBOR 1 (RS60S)     
1 57187U 23091X   23359.56925226  .00008475  00000+0  57849-3 0  9991
2 57187  97.6429  48.7997 0014136 348.5383  11.5520 15.06364256 27225
VIZARD-METEO (RS38S)    
1 57189U 23091Z   23359.57710592  .00009188  00000+0  61468-3 0  9996
2 57189  97.6422  48.9254 0013028 347.5150  12.5753 15.07100865 27233
NANOZOND 1 (RS49S)      
1 57190U 23091AA  23359.57783426  .00012637  00000+0  81969-3 0  9995
2 57190  97.6399  49.0148 0011737 353.8653   6.2429 15.08168660 27244
POLYTECH-UNIVERSE 3 (R*)
1 57191U 23091AB  23359.61015127  .00006023  00000+0  42137-3 0  9993
2 57191  97.6406  48.5144 0020568   7.2240 352.9279 15.05479197 27216
UTMN 2 (RS27S)          
1 57203U 23091AP  23359.59404039  .00008232  00000+0  55468-3 0  9993
2 57203  97.6431  48.9021 0013299 349.1452  10.9486 15.06866488 27239
ARCCUBE 1 (RS25S)       
1 57205U 23091AR  23359.56615362  .00015588  00000+0  10006-2 0  9995
2 57205  97.6381  48.9891 0012128 355.0870   5.0237 15.08497951 27247
KUZGTU 1 (RS47S)        
1 57217U 23091AV  23359.60994975  .00008596  00000+0  59782-3 0  9999
2 57217  97.6421  48.5491 0018134 357.3876   2.7253 15.05609339 27212
